NIMIQ 2                 
1 27632U 02062A   26032.61161160 -.00000080  00000+0  00000+0 0  9992
2 27632   9.1320  58.3168 0006420 258.7105 285.7393  1.00272276 42828
ANIK F2                 
1 28378U 04027A   26032.89649650 -.00000061  00000+0  00000+0 0  9997
2 28378   2.9345  81.2957 0001853 262.3503   0.0496  1.00271614 39905
ANIK F1R                
1 28868U 05036A   26032.68328532 -.00000086  00000+0  00000+0 0  9999
2 28868   3.9664  78.2961 0001957 252.3154 299.9326  1.00272739 45098
ANIK F3                 
1 31102U 07009A   26032.68103197 -.00000011  00000+0  00000+0 0  9992
2 31102   0.8476  85.6533 0002859 229.7556 302.9076  1.00271974 45203
NIMIQ 4                 
1 33373U 08044A   26032.90230319 -.00000230  00000+0  00000+0 0  9999
2 33373   0.0218  76.1213 0002159 254.7601  44.0225  1.00270621 63627
TELSTAR 11N             
1 34111U 09009A   26032.91114324 -.00000261  00000+0  00000+0 0  9994
2 34111   0.0138  74.4148 0002682 228.4879 119.6458  1.00269620 44884
TERRESTAR-1             
1 35496U 09035A   26032.68259198 -.00000067  00000+0  00000+0 0  9997
2 35496   5.0716  48.8455 0002834 275.2603 302.4983  1.00270589 60775
NIMIQ 5                 
1 35873U 09050A   26032.90412321 -.00000267  00000+0  00000+0 0  9999
2 35873   0.0042   3.3065 0002802 304.9320  76.6215  1.00271075 59985
SKYTERRA 1              
1 37218U 10061A   26032.61317161 -.00000128  00000+0  00000+0 0  9998
2 37218   4.8360  50.9321 0002614 226.5658 333.7106  1.00271588 55837
TELSTAR 14R             
1 37602U 11021A   26032.90602988  .00000000  00000+0  00000+0 0  9996
2 37602   0.0115 253.4075 0002561  86.1581  55.7255  1.00268156 54474
NIMIQ 6                 
1 38342U 12026A   26032.90048319 -.00000183  00000+0  00000+0 0  9999
2 38342   0.0112  38.1645 0002756 270.6482  56.3359  1.00271185 49056
ANIK G1                 
1 39127U 13014A   26032.89727650 -.00000084  00000+0  00000+0 0  9999
2 39127   0.0630 265.9465 0003465  31.4730  50.3601  1.00271337 46892
TELSTAR 12V             
1 41036U 15068A   26032.91556326 -.00000129  00000+0  00000+0 0  9995
2 41036   0.0143  86.9956 0002691 230.7892 128.9096  1.00271148 37263
VIASAT-2                
1 42740U 17029A   26032.90472987 -.00000275  00000+0  00000+0 0  9998
2 42740   0.0073  28.7576 0000267 349.6175   9.5041  1.00270469 31848
LEO 1 (LEO VANTAGE 1)   
1 43113U 18004C   26032.69446132  .00002406  00000+0  17117-3 0  9994
2 43113  99.2516 293.3440 0354183 134.9811 228.0686 14.66902834417616
TELSTAR 19V             
1 43562U 18059A   26032.90602988 -.00000290  00000+0  00000+0 0  9998
2 43562   0.0249 156.0773 0000369  86.6272 152.5226  1.00270432 27781
TELSTAR 18V             
1 43611U 18069A   26032.94589678  .00000000  00000+0  00000+0 0  9996
2 43611   0.0126 100.2952 0002128 213.3879 296.9855  1.00268051 27276
