[{"OBJECT_NAME":"NIMIQ 2","OBJECT_ID":"2002-062A","EPOCH":"2026-02-01T14:40:43.242240","MEAN_MOTION":1.00272276,"ECCENTRICITY":0.00064208,"INCLINATION":9.132,"RA_OF_ASC_NODE":58.3168,"ARG_OF_PERICENTER":258.7105,"MEAN_ANOMALY":285.7393,"EPHEMERIS_TYPE":0,"CLASSIFICATION_TYPE":"U","NORAD_CAT_ID":27632,"ELEMENT_SET_NO":999,"REV_AT_EPOCH":4282,"BSTAR":0,"MEAN_MOTION_DOT":-8.0e-7,"MEAN_MOTION_DDOT":0},{"OBJECT_NAME":"ANIK F2","OBJECT_ID":"2004-027A","EPOCH":"2026-02-01T21:30:57.297600","MEAN_MOTION":1.00271614,"ECCENTRICITY":0.00018534,"INCLINATION":2.9345,"RA_OF_ASC_NODE":81.2957,"ARG_OF_PERICENTER":262.3503,"MEAN_ANOMALY":0.0496,"EPHEMERIS_TYPE":0,"CLASSIFICATION_TYPE":"U","NORAD_CAT_ID":28378,"ELEMENT_SET_NO":999,"REV_AT_EPOCH":3990,"BSTAR":0,"MEAN_MOTION_DOT":-6.1e-7,"MEAN_MOTION_DDOT":0},{"OBJECT_NAME":"ANIK F1R","OBJECT_ID":"2005-036A","EPOCH":"2026-02-01T16:23:55.851648","MEAN_MOTION":1.00272739,"ECCENTRICITY":0.00019579,"INCLINATION":3.9664,"RA_OF_ASC_NODE":78.2961,"ARG_OF_PERICENTER":252.3154,"MEAN_ANOMALY":299.9326,"EPHEMERIS_TYPE":0,"CLASSIFICATION_TYPE":"U","NORAD_CAT_ID":28868,"ELEMENT_SET_NO":999,"REV_AT_EPOCH":4509,"BSTAR":0,"MEAN_MOTION_DOT":-8.6e-7,"MEAN_MOTION_DDOT":0},{"OBJECT_NAME":"ANIK F3","OBJECT_ID":"2007-009A","EPOCH":"2026-02-01T16:20:41.162208","MEAN_MOTION":1.00271974,"ECCENTRICITY":0.00028593,"INCLINATION":0.8476,"RA_OF_ASC_NODE":85.6533,"ARG_OF_PERICENTER":229.7556,"MEAN_ANOMALY":302.9076,"EPHEMERIS_TYPE":0,"CLASSIFICATION_TYPE":"U","NORAD_CAT_ID":31102,"ELEMENT_SET_NO":999,"REV_AT_EPOCH":4520,"BSTAR":0,"MEAN_MOTION_DOT":-1.1e-7,"MEAN_MOTION_DDOT":0},{"OBJECT_NAME":"NIMIQ 4","OBJECT_ID":"2008-044A","EPOCH":"2026-02-01T21:39:18.995616","MEAN_MOTION":1.00270621,"ECCENTRICITY":0.00021591,"INCLINATION":0.0218,"RA_OF_ASC_NODE":76.1213,"ARG_OF_PERICENTER":254.7601,"MEAN_ANOMALY":44.0225,"EPHEMERIS_TYPE":0,"CLASSIFICATION_TYPE":"U","NORAD_CAT_ID":33373,"ELEMENT_SET_NO":999,"REV_AT_EPOCH":6362,"BSTAR":0,"MEAN_MOTION_DOT":-2.3e-6,"MEAN_MOTION_DDOT":0},{"OBJECT_NAME":"TELSTAR 11N","OBJECT_ID":"2009-009A","EPOCH":"2026-02-01T21:52:02.775936","MEAN_MOTION":1.0026962,"ECCENTRICITY":0.00026829,"INCLINATION":0.0138,"RA_OF_ASC_NODE":74.4148,"ARG_OF_PERICENTER":228.4879,"MEAN_ANOMALY":119.6458,"EPHEMERIS_TYPE":0,"CLASSIFICATION_TYPE":"U","NORAD_CAT_ID":34111,"ELEMENT_SET_NO":999,"REV_AT_EPOCH":4488,"BSTAR":0,"MEAN_MOTION_DOT":-2.61e-6,"MEAN_MOTION_DDOT":0},{"OBJECT_NAME":"TERRESTAR-1","OBJECT_ID":"2009-035A","EPOCH":"2026-02-01T16:22:55.947072","MEAN_MOTION":1.00270589,"ECCENTRICITY":0.00028346,"INCLINATION":5.0716,"RA_OF_ASC_NODE":48.8455,"ARG_OF_PERICENTER":275.2603,"MEAN_ANOMALY":302.4983,"EPHEMERIS_TYPE":0,"CLASSIFICATION_TYPE":"U","NORAD_CAT_ID":35496,"ELEMENT_SET_NO":999,"REV_AT_EPOCH":6077,"BSTAR":0,"MEAN_MOTION_DOT":-6.7e-7,"MEAN_MOTION_DDOT":0},{"OBJECT_NAME":"NIMIQ 5","OBJECT_ID":"2009-050A","EPOCH":"2026-02-01T21:41:56.245344","MEAN_MOTION":1.00271075,"ECCENTRICITY":0.00028024,"INCLINATION":0.0042,"RA_OF_ASC_NODE":3.3065,"ARG_OF_PERICENTER":304.932,"MEAN_ANOMALY":76.6215,"EPHEMERIS_TYPE":0,"CLASSIFICATION_TYPE":"U","NORAD_CAT_ID":35873,"ELEMENT_SET_NO":999,"REV_AT_EPOCH":5998,"BSTAR":0,"MEAN_MOTION_DOT":-2.67e-6,"MEAN_MOTION_DDOT":0},{"OBJECT_NAME":"SKYTERRA 1","OBJECT_ID":"2010-061A","EPOCH":"2026-02-01T14:42:58.027104","MEAN_MOTION":1.00271588,"ECCENTRICITY":0.00026149,"INCLINATION":4.836,"RA_OF_ASC_NODE":50.9321,"ARG_OF_PERICENTER":226.5658,"MEAN_ANOMALY":333.7106,"EPHEMERIS_TYPE":0,"CLASSIFICATION_TYPE":"U","NORAD_CAT_ID":37218,"ELEMENT_SET_NO":999,"REV_AT_EPOCH":5583,"BSTAR":0,"MEAN_MOTION_DOT":-1.28e-6,"MEAN_MOTION_DDOT":0},{"OBJECT_NAME":"TELSTAR 14R","OBJECT_ID":"2011-021A","EPOCH":"2026-02-01T21:44:40.981632","MEAN_MOTION":1.00268156,"ECCENTRICITY":0.00025611,"INCLINATION":0.0115,"RA_OF_ASC_NODE":253.4075,"ARG_OF_PERICENTER":86.1581,"MEAN_ANOMALY":55.7255,"EPHEMERIS_TYPE":0,"CLASSIFICATION_TYPE":"U","NORAD_CAT_ID":37602,"ELEMENT_SET_NO":999,"REV_AT_EPOCH":5447,"BSTAR":0,"MEAN_MOTION_DOT":0,"MEAN_MOTION_DDOT":0},{"OBJECT_NAME":"NIMIQ 6","OBJECT_ID":"2012-026A","EPOCH":"2026-02-01T21:36:41.747616","MEAN_MOTION":1.00271185,"ECCENTRICITY":0.00027566,"INCLINATION":0.0112,"RA_OF_ASC_NODE":38.1645,"ARG_OF_PERICENTER":270.6482,"MEAN_ANOMALY":56.3359,"EPHEMERIS_TYPE":0,"CLASSIFICATION_TYPE":"U","NORAD_CAT_ID":38342,"ELEMENT_SET_NO":999,"REV_AT_EPOCH":4905,"BSTAR":0,"MEAN_MOTION_DOT":-1.83e-6,"MEAN_MOTION_DDOT":0},{"OBJECT_NAME":"ANIK G1","OBJECT_ID":"2013-014A","EPOCH":"2026-02-01T21:32:04.689600","MEAN_MOTION":1.00271337,"ECCENTRICITY":0.00034651,"INCLINATION":0.063,"RA_OF_ASC_NODE":265.9465,"ARG_OF_PERICENTER":31.473,"MEAN_ANOMALY":50.3601,"EPHEMERIS_TYPE":0,"CLASSIFICATION_TYPE":"U","NORAD_CAT_ID":39127,"ELEMENT_SET_NO":999,"REV_AT_EPOCH":4689,"BSTAR":0,"MEAN_MOTION_DOT":-8.4e-7,"MEAN_MOTION_DDOT":0},{"OBJECT_NAME":"TELSTAR 12V","OBJECT_ID":"2015-068A","EPOCH":"2026-02-01T21:58:24.665664","MEAN_MOTION":1.00271148,"ECCENTRICITY":0.00026915,"INCLINATION":0.0143,"RA_OF_ASC_NODE":86.9956,"ARG_OF_PERICENTER":230.7892,"MEAN_ANOMALY":128.9096,"EPHEMERIS_TYPE":0,"CLASSIFICATION_TYPE":"U","NORAD_CAT_ID":41036,"ELEMENT_SET_NO":999,"REV_AT_EPOCH":3726,"BSTAR":0,"MEAN_MOTION_DOT":-1.29e-6,"MEAN_MOTION_DDOT":0},{"OBJECT_NAME":"VIASAT-2","OBJECT_ID":"2017-029A","EPOCH":"2026-02-01T21:42:48.660768","MEAN_MOTION":1.00270469,"ECCENTRICITY":2.674e-5,"INCLINATION":0.0073,"RA_OF_ASC_NODE":28.7576,"ARG_OF_PERICENTER":349.6175,"MEAN_ANOMALY":9.5041,"EPHEMERIS_TYPE":0,"CLASSIFICATION_TYPE":"U","NORAD_CAT_ID":42740,"ELEMENT_SET_NO":999,"REV_AT_EPOCH":3184,"BSTAR":0,"MEAN_MOTION_DOT":-2.75e-6,"MEAN_MOTION_DDOT":0},{"OBJECT_NAME":"LEO 1 (LEO VANTAGE 1)","OBJECT_ID":"2018-004C","EPOCH":"2026-02-01T16:40:01.458048","MEAN_MOTION":14.66902834,"ECCENTRICITY":0.03541831,"INCLINATION":99.2516,"RA_OF_ASC_NODE":293.344,"ARG_OF_PERICENTER":134.9811,"MEAN_ANOMALY":228.0686,"EPHEMERIS_TYPE":0,"CLASSIFICATION_TYPE":"U","NORAD_CAT_ID":43113,"ELEMENT_SET_NO":999,"REV_AT_EPOCH":41761,"BSTAR":0.00017116761,"MEAN_MOTION_DOT":2.406e-5,"MEAN_MOTION_DDOT":0},{"OBJECT_NAME":"TELSTAR 19V","OBJECT_ID":"2018-059A","EPOCH":"2026-02-01T21:44:40.981632","MEAN_MOTION":1.00270432,"ECCENTRICITY":3.696e-5,"INCLINATION":0.0249,"RA_OF_ASC_NODE":156.0773,"ARG_OF_PERICENTER":86.6272,"MEAN_ANOMALY":152.5226,"EPHEMERIS_TYPE":0,"CLASSIFICATION_TYPE":"U","NORAD_CAT_ID":43562,"ELEMENT_SET_NO":999,"REV_AT_EPOCH":2778,"BSTAR":0,"MEAN_MOTION_DOT":-2.9e-6,"MEAN_MOTION_DDOT":0},{"OBJECT_NAME":"TELSTAR 18V","OBJECT_ID":"2018-069A","EPOCH":"2026-02-01T22:42:05.481792","MEAN_MOTION":1.00268051,"ECCENTRICITY":0.00021286,"INCLINATION":0.0126,"RA_OF_ASC_NODE":100.2952,"ARG_OF_PERICENTER":213.3879,"MEAN_ANOMALY":296.9855,"EPHEMERIS_TYPE":0,"CLASSIFICATION_TYPE":"U","NORAD_CAT_ID":43611,"ELEMENT_SET_NO":999,"REV_AT_EPOCH":2727,"BSTAR":0,"MEAN_MOTION_DOT":0,"MEAN_MOTION_DDOT":0}]
